{"fetched_at":"2026-07-18T17:29:31.619Z","source":"https://celestrak.org/NORAD/elements/gp.php?GROUP=oneweb&FORMAT=JSON","constellation":"oneweb","records":[{"OBJECT_NAME":"ONEWEB-0558","OBJECT_ID":"2023-043P","EPOCH":"2026-07-18T04:14:38.664960","CLASSIFICATION_TYPE":"U","MEAN_MOTION":13.21826063,"ECCENTRICITY":0.00023694,"INCLINATION":87.9234,"RA_OF_ASC_NODE":237.8108,"ARG_OF_PERICENTER":93.9383,"MEAN_ANOMALY":266.2022,"EPHEMERIS_TYPE":0,"NORAD_CAT_ID":56059,"ELEMENT_SET_NO":999,"REV_AT_EPOCH":16233,"BSTAR":-0.00021352319,"MEAN_MOTION_DOT":-7.5e-7,"MEAN_MOTION_DDOT":0},{"OBJECT_NAME":"ONEWEB-0559","OBJECT_ID":"2023-043Q","EPOCH":"2026-07-18T03:57:41.650560","CLASSIFICATION_TYPE":"U","MEAN_MOTION":13.21823821,"ECCENTRICITY":0.00022691,"INCLINATION":87.9234,"RA_OF_ASC_NODE":237.8086,"ARG_OF_PERICENTER":101.2827,"MEAN_ANOMALY":258.8562,"EPHEMERIS_TYPE":0,"NORAD_CAT_ID":56060,"ELEMENT_SET_NO":999,"REV_AT_EPOCH":16234,"BSTAR":-0.00022607038,"MEAN_MOTION_DOT":-8e-7,"MEAN_MOTION_DDOT":0},{"OBJECT_NAME":"ONEWEB-0566","OBJECT_ID":"2023-043R","EPOCH":"2026-07-18T03:48:00.379008","CLASSIFICATION_TYPE":"U","MEAN_MOTION":13.21824112,"ECCENTRICITY":0.00023362,"INCLINATION":87.9231,"RA_OF_ASC_NODE":237.8081,"ARG_OF_PERICENTER":101.2524,"MEAN_ANOMALY":258.8872,"EPHEMERIS_TYPE":0,"NORAD_CAT_ID":56061,"ELEMENT_SET_NO":999,"REV_AT_EPOCH":16232,"BSTAR":0.000045574594,"MEAN_MOTION_DOT":3.2e-7,"MEAN_MOTION_DDOT":0},{"OBJECT_NAME":"ONEWEB-0568","OBJECT_ID":"2023-043S","EPOCH":"2026-07-18T02:14:54.789216","CLASSIFICATION_TYPE":"U","MEAN_MOTION":13.16596249,"ECCENTRICITY":0.00020945,"INCLINATION":87.9075,"RA_OF_ASC_NODE":222.6316,"ARG_OF_PERICENTER":85.3512,"MEAN_ANOMALY":274.7858,"EPHEMERIS_TYPE":0,"NORAD_CAT_ID":56062,"ELEMENT_SET_NO":999,"REV_AT_EPOCH":16304,"BSTAR":-0.00014917724,"MEAN_MOTION_DOT":-4.4e-7,"MEAN_MOTION_DDOT":0},{"OBJECT_NAME":"ONEWEB-0574","OBJECT_ID":"2023-043T","EPOCH":"2026-07-18T03:38:19.869504","CLASSIFICATION_TYPE":"U","MEAN_MOTION":13.21825728,"ECCENTRICITY":0.00018991,"INCLINATION":87.9239,"RA_OF_ASC_NODE":237.8142,"ARG_OF_PERICENTER":93.7528,"MEAN_ANOMALY":266.3823,"EPHEMERIS_TYPE":0,"NORAD_CAT_ID":56063,"ELEMENT_SET_NO":999,"REV_AT_EPOCH":16236,"BSTAR":-0.000007209127,"MEAN_MOTION_DOT":1e-7,"MEAN_MOTION_DDOT":0},{"OBJECT_NAME":"ONEWEB-0575","OBJECT_ID":"2023-043U","EPOCH":"2026-07-18T02:05:47.205888","CLASSIFICATION_TYPE":"U","MEAN_MOTION":13.16596555,"ECCENTRICITY":0.00017133,"INCLINATION":87.9078,"RA_OF_ASC_NODE":222.6291,"ARG_OF_PERICENTER":84.5814,"MEAN_ANOMALY":275.5512,"EPHEMERIS_TYPE":0,"NORAD_CAT_ID":56064,"ELEMENT_SET_NO":999,"REV_AT_EPOCH":16303,"BSTAR":0.000040741847,"MEAN_MOTION_DOT":2.8e-7,"MEAN_MOTION_DDOT":0},{"OBJECT_NAME":"ONEWEB-0576","OBJECT_ID":"2023-043V","EPOCH":"2026-07-18T01:38:25.211904","CLASSIFICATION_TYPE":"U","MEAN_MOTION":13.16596086,"ECCENTRICITY":0.00019032,"INCLINATION":87.9083,"RA_OF_ASC_NODE":222.6416,"ARG_OF_PERICENTER":90.2801,"MEAN_ANOMALY":269.8548,"EPHEMERIS_TYPE":0,"NORAD_CAT_ID":56065,"ELEMENT_SET_NO":999,"REV_AT_EPOCH":16302,"BSTAR":0.00029183763,"MEAN_MOTION_DOT":0.00000124,"MEAN_MOTION_DDOT":0},{"OBJECT_NAME":"ONEWEB-0577","OBJECT_ID":"2023-043W","EPOCH":"2026-07-18T01:47:33.138240","CLASSIFICATION_TYPE":"U","MEAN_MOTION":13.16595806,"ECCENTRICITY":0.00013278,"INCLINATION":87.9081,"RA_OF_ASC_NODE":222.6378,"ARG_OF_PERICENTER":85.8986,"MEAN_ANOMALY":274.2296,"EPHEMERIS_TYPE":0,"NORAD_CAT_ID":56066,"ELEMENT_SET_NO":999,"REV_AT_EPOCH":16305,"BSTAR":0.000067394308,"MEAN_MOTION_DOT":3.9e-7,"MEAN_MOTION_DDOT":0},{"OBJECT_NAME":"ONEWEB-0578","OBJECT_ID":"2023-043X","EPOCH":"2026-07-18T03:18:56.998080","CLASSIFICATION_TYPE":"U","MEAN_MOTION":13.21826495,"ECCENTRICITY":0.0002076,"INCLINATION":87.9234,"RA_OF_ASC_NODE":237.8133,"ARG_OF_PERICENTER":85.7464,"MEAN_ANOMALY":274.3907,"EPHEMERIS_TYPE":0,"NORAD_CAT_ID":56067,"ELEMENT_SET_NO":999,"REV_AT_EPOCH":16232,"BSTAR":0.000030295312,"MEAN_MOTION_DOT":2.6e-7,"MEAN_MOTION_DDOT":0},{"OBJECT_NAME":"ONEWEB-0579","OBJECT_ID":"2023-043Y","EPOCH":"2026-07-18T03:06:48.350592","CLASSIFICATION_TYPE":"U","MEAN_MOTION":13.21824013,"ECCENTRICITY":0.00020954,"INCLINATION":87.924,"RA_OF_ASC_NODE":237.8135,"ARG_OF_PERICENTER":102.4399,"MEAN_ANOMALY":257.6969,"EPHEMERIS_TYPE":0,"NORAD_CAT_ID":56068,"ELEMENT_SET_NO":999,"REV_AT_EPOCH":16233,"BSTAR":0.000046480141,"MEAN_MOTION_DOT":3.2e-7,"MEAN_MOTION_DDOT":0},{"OBJECT_NAME":"ONEWEB-0581","OBJECT_ID":"2023-043Z","EPOCH":"2026-07-18T03:46:06.342240","CLASSIFICATION_TYPE":"U","MEAN_MOTION":13.16595516,"ECCENTRICITY":0.00015068,"INCLINATION":87.9071,"RA_OF_ASC_NODE":222.6319,"ARG_OF_PERICENTER":92.3886,"MEAN_ANOMALY":267.7417,"EPHEMERIS_TYPE":0,"NORAD_CAT_ID":56069,"ELEMENT_SET_NO":999,"REV_AT_EPOCH":16303,"BSTAR":-0.0001359262,"MEAN_MOTION_DOT":-3.9e-7,"MEAN_MOTION_DDOT":0},{"OBJECT_NAME":"ONEWEB-0609","OBJECT_ID":"2023-043AA","EPOCH":"2026-07-18T03:16:52.459392","CLASSIFICATION_TYPE":"U","MEAN_MOTION":13.15547576,"ECCENTRICITY":0.00021515,"INCLINATION":87.8978,"RA_OF_ASC_NODE":253.0441,"ARG_OF_PERICENTER":97.663,"MEAN_ANOMALY":262.4745,"EPHEMERIS_TYPE":0,"NORAD_CAT_ID":56070,"ELEMENT_SET_NO":999,"REV_AT_EPOCH":16050,"BSTAR":0.00051441657,"MEAN_MOTION_DOT":0.00000206,"MEAN_MOTION_DDOT":0},{"OBJECT_NAME":"ONEWEB-0613","OBJECT_ID":"2023-043AB","EPOCH":"2026-07-18T03:13:27.187680","CLASSIFICATION_TYPE":"U","MEAN_MOTION":13.15548074,"ECCENTRICITY":0.00022288,"INCLINATION":87.8977,"RA_OF_ASC_NODE":253.0571,"ARG_OF_PERICENTER":103.1488,"MEAN_ANOMALY":256.9891,"EPHEMERIS_TYPE":0,"NORAD_CAT_ID":56071,"ELEMENT_SET_NO":999,"REV_AT_EPOCH":16050,"BSTAR":0.00037018045,"MEAN_MOTION_DOT":0.00000152,"MEAN_MOTION_DDOT":0},{"OBJECT_NAME":"ONEWEB-0630","OBJECT_ID":"2023-043AC","EPOCH":"2026-07-18T03:06:35.757792","CLASSIFICATION_TYPE":"U","MEAN_MOTION":13.15549195,"ECCENTRICITY":0.0002207,"INCLINATION":87.8983,"RA_OF_ASC_NODE":253.0317,"ARG_OF_PERICENTER":103.3933,"MEAN_ANOMALY":256.7444,"EPHEMERIS_TYPE":0,"NORAD_CAT_ID":56072,"ELEMENT_SET_NO":999,"REV_AT_EPOCH":16049,"BSTAR":0.00019212373,"MEAN_MOTION_DOT":8.5e-7,"MEAN_MOTION_DDOT":0},{"OBJECT_NAME":"ONEWEB-0632","OBJECT_ID":"2023-043AD","EPOCH":"2026-07-18T02:59:46.118976","CLASSIFICATION_TYPE":"U","MEAN_MOTION":13.15548576,"ECCENTRICITY":0.00017877,"INCLINATION":87.8982,"RA_OF_ASC_NODE":253.0492,"ARG_OF_PERICENTER":98.4723,"MEAN_ANOMALY":261.661,"EPHEMERIS_TYPE":0,"NORAD_CAT_ID":56073,"ELEMENT_SET_NO":999,"REV_AT_EPOCH":16049,"BSTAR":-0.00017165658,"MEAN_MOTION_DOT":-5.2e-7,"MEAN_MOTION_DDOT":0},{"OBJECT_NAME":"ONEWEB-0633","OBJECT_ID":"2023-043AE","EPOCH":"2026-07-18T02:50:38.237568","CLASSIFICATION_TYPE":"U","MEAN_MOTION":13.15548388,"ECCENTRICITY":0.00024455,"INCLINATION":87.8989,"RA_OF_ASC_NODE":253.0283,"ARG_OF_PERICENTER":103.0913,"MEAN_ANOMALY":257.0491,"EPHEMERIS_TYPE":0,"NORAD_CAT_ID":56074,"ELEMENT_SET_NO":999,"REV_AT_EPOCH":16047,"BSTAR":-0.000009414349,"MEAN_MOTION_DOT":9e-8,"MEAN_MOTION_DDOT":0}]}
