ONEWEB-0558             
1 56059U 23043P   26199.17683640 -.00000075  00000+0 -21352-3 0  9998
2 56059  87.9234 237.8108 0002369  93.9383 266.2022 13.21826063162331
ONEWEB-0559             
1 56060U 23043Q   26199.16506540 -.00000080  00000+0 -22607-3 0  9992
2 56060  87.9234 237.8086 0002269 101.2827 258.8562 13.21823821162349
ONEWEB-0566             
1 56061U 23043R   26199.15833772  .00000032  00000+0  45575-4 0  9997
2 56061  87.9231 237.8081 0002336 101.2524 258.8872 13.21824112162327
ONEWEB-0568             
1 56062U 23043S   26199.09368969 -.00000044  00000+0 -14918-3 0  9993
2 56062  87.9075 222.6316 0002094  85.3512 274.7858 13.16596249163049
ONEWEB-0574             
1 56063U 23043T   26199.15161886  .00000010  00000+0 -72091-5 0  9990
2 56063  87.9239 237.8142 0001899  93.7528 266.3823 13.21825728162365
ONEWEB-0575             
1 56064U 23043U   26199.08735192  .00000028  00000+0  40742-4 0  9995
2 56064  87.9078 222.6291 0001713  84.5814 275.5512 13.16596555163034
ONEWEB-0576             
1 56065U 23043V   26199.06834736  .00000124  00000+0  29184-3 0  9991
2 56065  87.9083 222.6416 0001903  90.2801 269.8548 13.16596086163024
ONEWEB-0577             
1 56066U 23043W   26199.07468910  .00000039  00000+0  67394-4 0  9991
2 56066  87.9081 222.6378 0001327  85.8986 274.2296 13.16595806163056
ONEWEB-0578             
1 56067U 23043X   26199.13815970  .00000026  00000+0  30295-4 0  9997
2 56067  87.9234 237.8133 0002076  85.7464 274.3907 13.21826495162322
ONEWEB-0579             
1 56068U 23043Y   26199.12972628  .00000032  00000+0  46480-4 0  9991
2 56068  87.9240 237.8135 0002095 102.4399 257.6969 13.21824013162334
ONEWEB-0581             
1 56069U 23043Z   26199.15701785 -.00000039  00000+0 -13593-3 0  9996
2 56069  87.9071 222.6319 0001506  92.3886 267.7417 13.16595516163032
ONEWEB-0609             
1 56070U 23043AA  26199.13671828  .00000206  00000+0  51442-3 0  9999
2 56070  87.8978 253.0441 0002151  97.6630 262.4745 13.15547576160502
ONEWEB-0613             
1 56071U 23043AB  26199.13434245  .00000152  00000+0  37018-3 0  9993
2 56071  87.8977 253.0571 0002228 103.1488 256.9891 13.15548074160509
ONEWEB-0630             
1 56072U 23043AC  26199.12958053  .00000085  00000+0  19212-3 0  9992
2 56072  87.8983 253.0317 0002207 103.3933 256.7444 13.15549195160494
ONEWEB-0632             
1 56073U 23043AD  26199.12483934 -.00000052  00000+0 -17166-3 0  9996
2 56073  87.8982 253.0492 0001787  98.4723 261.6610 13.15548576160493
ONEWEB-0633             
1 56074U 23043AE  26199.11849812  .00000009  00000+0 -94143-5 0  9990
2 56074  87.8989 253.0283 0002445 103.0913 257.0491 13.15548388160470
